[{"OBJECT_NAME":"STARLINK-1278","OBJECT_ID":"2020-019BA","EPOCH":"2026-03-10T00:00:02.999808","MEAN_MOTION":15.56016323,"ECCENTRICITY":0.00019768,"INCLINATION":53.0445,"RA_OF_ASC_NODE":128.895,"ARG_OF_PERICENTER":44.2892,"MEAN_ANOMALY":100.8701,"EPHEMERIS_TYPE":0,"CLASSIFICATION_TYPE":"U","NORAD_CAT_ID":45408,"ELEMENT_SET_NO":999,"REV_AT_EPOCH":587,"BSTAR":0.0023716775,"MEAN_MOTION_DOT":0.00171237,"MEAN_MOTION_DDOT":0},{"OBJECT_NAME":"STARLINK-36628","OBJECT_ID":"2026-018G","EPOCH":"2026-03-09T22:00:01.999584","MEAN_MOTION":15.71788373,"ECCENTRICITY":0.00016367,"INCLINATION":97.2851,"RA_OF_ASC_NODE":134.7143,"ARG_OF_PERICENTER":74.8592,"MEAN_ANOMALY":228.4539,"EPHEMERIS_TYPE":0,"CLASSIFICATION_TYPE":"U","NORAD_CAT_ID":67595,"ELEMENT_SET_NO":999,"REV_AT_EPOCH":587,"BSTAR":-0.017206569,"MEAN_MOTION_DOT":-0.01926622,"MEAN_MOTION_DDOT":0}]
